satname,norad_id,inclination_deg,eccentricity,mean_motion_rev_per_day,perigee_km,apogee_km,l1,l2
STARLINK-1420,45695,53.047,0.0006009,15.66424998,365.0891522531265,373.19803406998744,1 45695U 20035AQ  26144.80251083  .00046029  00000+0  43706-3 0  9996,2 45695  53.0470  11.0978 0006009  92.5788 267.5915 15.66424998331242
STARLINK-1422,45696,53.1585,0.0003685,15.33696986,462.27192417652714,467.315163987515,1 45696U 20035AR  26145.46164322  .00040220  00000+0  12218-2 0  9999,2 45696  53.1585  52.3427 0003685 106.5767 253.5640 15.33696986330733
STARLINK-1351,45697,53.0445,0.0005281,15.64964227,369.7761881455608,376.90709988937215,1 45697U 20035AS  26145.31994988  .00045885  00000+0  46196-3 0  9998,2 45697  53.0445   8.8224 0005281 105.1682 254.9917 15.64964227331322
STARLINK-1400,45700,53.0438,0.0003535,15.62991002,376.6341403263814,381.41145230237544,1 45700U 20035AV  26145.64121682  .00093417  00000+0  10048-2 0  9992,2 45700  53.0438   9.6707 0003535  63.0668 297.0706 15.62991002331334
STARLINK-1403,45701,53.1551,0.0002922,15.32649518,465.91057764460675,469.9114080916397,1 45701U 20035AW  26145.40019250  .00039460  00000+0  12393-2 0  9997,2 45701  53.1551  40.0765 0002922 120.4173 239.7118 15.32649518330892
STARLINK-1407,45703,53.0278,0.0003974,15.71729975,351.27721443903647,356.6278792108533,1 45703U 20035AY  26144.68511819  .00058638  00000+0  44602-3 0  9993,2 45703  53.0278 301.8327 0003974   0.2323 359.8695 15.71729975332201
STARLINK-1411,45706,53.0328,0.0003684,15.83702656,317.512648961806,322.4478217408123,1 45706U 20035BB  26145.58335648  .00209862  00000+0  91207-3 0  9990,2 45706  53.0328 320.1643 0003684 278.7919 163.4202 15.83702656  5936
STARLINK-1423,45710,53.0453,0.0007059,15.67420699,361.5249377456439,371.04671389113537,1 45710U 20035BF  26145.35177188  .00055140  00000+0  50122-3 0  9992,2 45710  53.0453   7.9322 0007059  65.3006 294.8744 15.67420699331322
STARLINK-1433,45711,53.0448,0.0007027,15.67011893,362.71864598527736,372.1989062890598,1 45711U 20035BG  26145.58866734  .00049811  00000+0  46114-3 0  9994,2 45711  53.0448   5.3244 0007027  70.8529 289.3246 15.67011893331382
STARLINK-1434,45712,53.0527,0.0003398,15.33063018,464.35405134671146,469.005788925635,1 45712U 20035BH  26145.37961881  .00028842  00000+0  89839-3 0  9993,2 45712  53.0527  22.9395 0003398  67.8992 292.2369 15.33063018331131
STARLINK-1465,45731,53.0447,0.0001449,15.6455421,373.54268921529183,375.49960954698327,1 45731U 20038B   26145.58335648  .00044160  00000+0  45240-3 0  9995,2 45731  53.0447 210.7364 0001449  66.9717 288.3922 15.64554210  5846
STARLINK-1471,45735,53.0441,0.000315,15.52705932,406.6915166349854,410.96730547395055,1 45735U 20038F   26145.26491335  .00024701  00000+0  39960-3 0  9991,2 45735  53.0441 134.0147 0003150  77.2404 282.8957 15.52705932329415
STARLINK-1480,45741,53.0484,0.00059,15.63526215,373.49485823898794,381.4664870927345,1 45741U 20038M   26145.49445712  .00064893  00000+0  68734-3 0  9998,2 45741  53.0484 204.7479 0005900 348.6544  11.4335 15.63526215328442
STARLINK-1500,45744,53.0341,0.0002162,15.38494608,449.08383748642245,452.03656615649015,1 45744U 20038Q   26145.41727995  .00020623  00000+0  54366-3 0  9998,2 45744  53.0341 191.7312 0002162  96.4557 263.6692 15.38494608328615
STARLINK-1504,45746,53.0195,0.0003736,15.57986244,390.9559766691391,396.01573326637117,1 45746U 20038S   26145.26177899  .00033219  00000+0  44021-3 0  9997,2 45746  53.0195 131.3295 0003736  59.1697 300.9682 15.57986244329431
STARLINK-1506,45747,53.0764,0.0003181,15.2802962,479.52098701188424,483.88521728487103,1 45747U 20038T   26145.55370817  .00005408  00000+0  20771-3 0  9990,2 45747  53.0764 206.2581 0003181 120.6622 239.4691 15.28029620328439
STARLINK-1464,45751,53.0459,0.0003885,15.53278359,404.5257606510122,409.7979378568816,1 45751U 20038X   26145.55475192  .00041049  00000+0  64431-3 0  9999,2 45751  53.0459 196.4874 0003885   0.0977   0.0033 15.53278359328564
STARLINK-1477,45754,53.0471,7.01e-05,15.18213842,510.75588123779744,511.7217717286703,1 45754U 20038AA  26145.48510972  .00029072  00000+0  14134-2 0  9996,2 45754  53.0471 222.8391 0000701 315.4496  44.6441 15.18213842328184
STARLINK-1478,45755,53.0451,0.000455,15.66692205,365.3067200107653,371.4460471898419,1 45755U 20038AB  26145.37123869  .00047440  00000+0  44557-3 0  9992,2 45755  53.0451 183.4833 0004550  26.8227 333.3022 15.66692205328716
STARLINK-1493,45759,53.0465,0.0007289,15.62788968,374.6794329133427,384.5308694213136,1 45759U 20038AF  26145.49158122  .00068735  00000+0  74831-3 0  9997,2 45759  53.0465 192.2314 0007289 344.9671  15.1125 15.62788968328601
STARLINK-1494,45760,53.0381,0.0005045,15.97933534,276.793799552549,283.51201406852033,1 45760U 20038AG  26145.58335648  .00207841  28648-4  45088-3 0  9997,2 45760  53.0381 123.3934 0005045  40.4715 252.3854 15.97933534  6031
STARLINK-1502,45764,53.0454,0.0007141,15.59236395,385.0328116952642,394.69887335495787,1 45764U 20038AL  26145.58335648  .00115267  00000+0  14260-2 0  9995,2 45764  53.0454 195.2432 0007141 325.0931  71.5807 15.59236395  5934
STARLINK-1470,45772,53.0435,0.000388,15.34091366,460.9661172905762,466.275321280742,1 45772U 20038AU  26145.49502628  .00030583  00000+0  92135-3 0  9993,2 45772  53.0435 176.0300 0003880 354.0703   6.0251 15.34091366328842
STARLINK-1482,45773,53.1576,0.0004716,15.36572473,453.03070282914996,459.4769002331541,1 45773U 20038AV  26145.39654821  .00026282  00000+0  73355-3 0  9990,2 45773  53.1576 192.9865 0004716 345.2446  14.8419 15.36572473328611
STARLINK-1496,45780,53.0454,0.0007884,15.60512652,380.8422387642904,391.5082062767606,1 45780U 20038BC  26145.46056206  .00081023  00000+0  96042-3 0  9991,2 45780  53.0454 166.8044 0007884  31.4968 328.6515 15.60512652328954
STARLINK-1513,45786,53.1583,0.0001337,15.3169744,469.831930588507,471.66332233762205,1 45786U 20038BJ  26145.39570077  .00001415  00000+0  57362-4 0  9996,2 45786  53.1583 194.4283 0001337  85.8317 274.2837 15.31697440328594
STARLINK-1522,46027,53.0622,0.000314,15.12390763,526.7425535734756,531.0801799478013,1 46027U 20055A   26145.28410122  .00022065  00000+0  12697-2 0  9990,2 46027  53.0622 140.3283 0003140  10.9459 349.1600 15.12390763320461
STARLINK-1523,46028,53.1593,0.0001339,15.30191688,474.32222050016117,476.15755483067824,1 46028U 20055B   26145.33243409  .00000146  00000+0  17054-4 0  9999,2 46028  53.1593 130.7054 0001339  99.7198 260.3954 15.30191688320632
STARLINK-1526,46029,53.16,0.0001099,15.30196161,474.4733473531378,475.9797166574717,1 46029U 20055C   26145.26080078 -.00000057  00000+0  10207-4 0  9998,2 46029  53.1600 131.0484 0001099  90.2898 269.8229 15.30196161320617
STARLINK-1555,46032,53.1578,0.0001156,15.3019237,474.44560118586014,476.03010145148437,1 46032U 20055F   26145.37562882  .00000492  00000+0  28725-4 0  9998,2 46032  53.1578 130.4963 0001156  84.1938 275.9195 15.30192370320631
STARLINK-1556,46033,53.1601,0.00016,15.30196819,474.1280294776261,476.32110517917044,1 46033U 20055G   26145.22814149  .00001242  00000+0  54059-4 0  9992,2 46033  53.1601 131.2004 0001600 111.3275 248.7896 15.30196819320587
STARLINK-1557,46034,53.1613,0.0001325,15.30197926,474.3131920467604,476.1293319861952,1 46034U 20055H   26145.23130295  .00001340  00000+0  57358-4 0  9991,2 46034  53.1613 131.1832 0001325  82.8143 277.3008 15.30197926320582
STARLINK-1558,46035,53.1596,0.0001197,15.30191909,474.41887865889385,476.05957692782704,1 46035U 20055J   26145.36930529  .00000203  00000+0  18968-4 0  9995,2 46035  53.1596 130.5399 0001197  89.3629 270.7508 15.30191909320635
STARLINK-1560,46036,53.1607,0.0001519,15.30189983,474.20394981636764,476.2860072614476,1 46036U 20055K   26145.22498583  .00000237  00000+0  20129-4 0  9999,2 46036  53.1607 131.2165 0001519 105.2740 254.8429 15.30189983320610
STARLINK-1569,46039,53.1593,0.0001127,15.30191585,474.4678195977558,476.01257081755557,1 46039U 20055N   26145.24184042  .00000631  00000+0  33440-4 0  9994,2 46039  53.1593 131.1229 0001127  81.7803 278.3326 15.30191585320607
STARLINK-1582,46043,53.1585,0.000135,15.31698692,469.8192953876269,471.6684932290909,1 46043U 20055S   26145.33772503  .00000555  00000+0  29640-4 0  9996,2 46043  53.1585 130.2271 0001350 101.8930 258.2223 15.31698692320620
STARLINK-1591,46045,53.1593,0.0001443,15.30193745,474.2448043868553,476.2226871840894,1 46045U 20055U   26145.27449400  .00000072  00000+0  14574-4 0  9992,2 46045  53.1593 130.9746 0001443  90.7178 269.3988 15.30193745320593
STARLINK-1524,46047,53.1607,0.0001177,15.31700261,469.9331044675755,471.5453299291048,1 46047U 20055W   26145.63329946 -.00000448  00000+0 -26705-5 0  9995,2 46047  53.1607 116.1513 0001177 102.6389 257.4744 15.31700261320855
STARLINK-1527,46048,53.1592,0.0001523,15.3169902,469.6998321449182,471.78600096750233,1 46048U 20055X   26145.30238916  .00003804  00000+0  13430-3 0  9992,2 46048  53.1592 117.6722 0001523  78.3964 281.7209 15.31699020320777
STARLINK-1540,46051,53.1596,0.0001233,15.3171319,469.85621511860245,471.5451384897033,1 46051U 20055AA  26145.61468738  .00003498  00000+0  12439-3 0  9994,2 46051  53.1596 116.4232 0001233  64.8353 295.2776 15.31713190320862
STARLINK-1541,46052,53.1585,0.0001987,15.79162073,331.48007380681247,334.14700555128184,1 46052U 20055AB  26145.35833029  .00145077  00000+0  78517-3 0  9994,2 46052  53.1585 106.3261 0001987 122.3955 237.7260 15.79162073320943
STARLINK-1543,46053,53.1589,0.0001234,15.31701224,469.89119557680533,471.58149751873407,1 46053U 20055AC  26145.19519179  .00000248  00000+0  19749-4 0  9997,2 46053  53.1589 118.1872 0001234  85.3237 274.7906 15.31701224320799
STARLINK-1548,46054,53.1581,0.0001096,15.3171904,469.9326078661952,471.43386926248877,1 46054U 20055AD  26145.20917941  .00004739  00000+0  16428-3 0  9998,2 46054  53.1581 118.1961 0001096  88.9430 271.1697 15.31719040320794
